STARLINK-2401_new
1 17818C 21018AH  21326.15642629 -.00020473  00000-0 -13719-2 0  3264
2 17818  53.0550  98.0369 0001314  80.6871  50.4179 15.06415249    16
STARLINK-2401_old
1 27818C 21018AH  21325.14757646  .00003028  00000-0  20282-3 0  3256
2 27818  53.0548 102.5654 0001303  80.3342 336.6870 15.06401558    14
